start=new Date('2022-11-05T00:00:00.000Z').valueOf();
sats=[{"TLE_LINE2":"2 45682  53.0506 137.3874 0001958 105.2789 254.8416 15.06400380134841","ELEMENT_SET_NO":"999","CLASSIFICATION_TYPE":"U","TIME_SYSTEM":"UTC","MEAN_MOTION_DOT":"-0.00000477","OBJECT_TYPE":"PAYLOAD","DECAY_DATE":null,"MEAN_ANOMALY":"254.8416","ARG_OF_PERICENTER":"105.2789","MEAN_MOTION":"15.06400380","NORAD_CAT_ID":"45682","EPHEMERIS_TYPE":"0","PERIAPSIS":"545.856","LAUNCH_DATE":"2020-06-04","OBJECT_NAME":"STARLINK-1397","BSTAR":"-0.00001309300000","SITE":"AFETR","APOAPSIS":"548.568","REF_FRAME":"TEME","ECCENTRICITY":"0.00019580","PERIOD":"95.592","GP_ID":"216933362","INCLINATION":"53.0506","RCS_SIZE":"LARGE","FILE":"3645105","OBJECT_ID":"2020-035AB","TLE_LINE1":"1 45682U 20035AB  22308.80482439 -.00000477  00000-0 -13093-4 0  9998","MEAN_MOTION_DDOT":"0.0000000000000","REV_AT_EPOCH":"13484","SEMIMAJOR_AXIS":"6925.347","COUNTRY_CODE":"US","MEAN_ELEMENT_THEORY":"SGP4","EPOCH":"2022-11-04T19:18:56.827296","RA_OF_ASC_NODE":"137.3874","CENTER_NAME":"EARTH"},{"RA_OF_ASC_NODE":"137.4541","CENTER_NAME":"EARTH","EPOCH":"2022-11-04T18:52:23.892960","COUNTRY_CODE":"US","MEAN_ELEMENT_THEORY":"SGP4","SEMIMAJOR_AXIS":"6925.348","REV_AT_EPOCH":"13485","MEAN_MOTION_DDOT":"0.0000000000000","TLE_LINE1":"1 45683U 20035AC  22308.78638765  .00002339  00000-0  17588-3 0  9990","OBJECT_ID":"2020-035AC","RCS_SIZE":"LARGE","FILE":"3645105","INCLINATION":"53.0525","GP_ID":"216933612","PERIOD":"95.592","ECCENTRICITY":"0.00012850","REF_FRAME":"TEME","SITE":"AFETR","BSTAR":"0.00017588000000","APOAPSIS":"548.103","OBJECT_NAME":"STARLINK-1399","LAUNCH_DATE":"2020-06-04","PERIAPSIS":"546.323","EPHEMERIS_TYPE":"0","MEAN_MOTION":"15.06400222","NORAD_CAT_ID":"45683","ARG_OF_PERICENTER":"94.0205","MEAN_ANOMALY":"266.0931","DECAY_DATE":null,"OBJECT_TYPE":"PAYLOAD","MEAN_MOTION_DOT":"0.00002339","CLASSIFICATION_TYPE":"U","TIME_SYSTEM":"UTC","ELEMENT_SET_NO":"999","TLE_LINE2":"2 45683  53.0525 137.4541 0001285  94.0205 266.0931 15.06400222134859"},{"ARG_OF_PERICENTER":"79.7546","NORAD_CAT_ID":"45684","MEAN_MOTION":"15.06396065","DECAY_DATE":null,"MEAN_ANOMALY":"280.3603","OBJECT_TYPE":"PAYLOAD","ELEMENT_SET_NO":"999","TLE_LINE2":"2 45684  53.0544 137.2725 0001422  79.7546 280.3603 15.06396065134869","TIME_SYSTEM":"UTC","CLASSIFICATION_TYPE":"U","MEAN_MOTION_DOT":"0.00001560","BSTAR":"0.00012358000000","SITE":"AFETR","APOAPSIS":"548.210","REF_FRAME":"TEME","ECCENTRICITY":"0.00014220","PERIOD":"95.592","LAUNCH_DATE":"2020-06-04","OBJECT_NAME":"STARLINK-1401","PERIAPSIS":"546.241","EPHEMERIS_TYPE":"0","TLE_LINE1":"1 45684U 20035AD  22308.83063203  .00001560  00000-0  12358-3 0  9991","OBJECT_ID":"2020-035AD","INCLINATION":"53.0544","FILE":"3645105","RCS_SIZE":"LARGE","GP_ID":"216934352","COUNTRY_CODE":"US","MEAN_ELEMENT_THEORY":"SGP4","EPOCH":"2022-11-04T19:56:06.607392","CENTER_NAME":"EARTH","RA_OF_ASC_NODE":"137.2725","SEMIMAJOR_AXIS":"6925.361","MEAN_MOTION_DDOT":"0.0000000000000","REV_AT_EPOCH":"13486"},{"OBJECT_NAME":"STARLINK-1402","LAUNCH_DATE":"2020-06-04","REF_FRAME":"TEME","ECCENTRICITY":"0.00013470","PERIOD":"95.592","SITE":"AFETR","BSTAR":"0.00010093000000","APOAPSIS":"548.158","EPHEMERIS_TYPE":"0","PERIAPSIS":"546.292","MEAN_ANOMALY":"259.7163","DECAY_DATE":null,"MEAN_MOTION":"15.06396203","NORAD_CAT_ID":"45685","ARG_OF_PERICENTER":"100.3978","MEAN_MOTION_DOT":"0.00001222","TLE_LINE2":"2 45685  53.0540 137.2923 0001347 100.3978 259.7163 15.06396203134867","ELEMENT_SET_NO":"999","CLASSIFICATION_TYPE":"U","TIME_SYSTEM":"UTC","OBJECT_TYPE":"PAYLOAD","RA_OF_ASC_NODE":"137.2923","CENTER_NAME":"EARTH","COUNTRY_CODE":"US","MEAN_ELEMENT_THEORY":"SGP4","EPOCH":"2022-11-04T19:50:47.276448","MEAN_MOTION_DDOT":"0.0000000000000","REV_AT_EPOCH":"13486","SEMIMAJOR_AXIS":"6925.360","OBJECT_ID":"2020-035AE","TLE_LINE1":"1 45685U 20035AE  22308.82693607  .00001222  00000-0  10093-3 0  9997","GP_ID":"216933113","RCS_SIZE":"LARGE","FILE":"3645105","INCLINATION":"53.0540"},{"EPHEMERIS_TYPE":"0","PERIAPSIS":"546.388","OBJECT_NAME":"STARLINK-1404","LAUNCH_DATE":"2020-06-04","PERIOD":"95.591","ECCENTRICITY":"0.00011200","REF_FRAME":"TEME","SITE":"AFETR","BSTAR":"-0.00015077000000","APOAPSIS":"547.940","MEAN_MOTION_DOT":"-0.00002527","TIME_SYSTEM":"UTC","CLASSIFICATION_TYPE":"U","ELEMENT_SET_NO":"999","TLE_LINE2":"2 45686  53.0539 137.3119 0001120 119.7590 240.3511 15.06416133134865","OBJECT_TYPE":"PAYLOAD","MEAN_ANOMALY":"240.3511","DECAY_DATE":null,"NORAD_CAT_ID":"45686","MEAN_MOTION":"15.06416133","ARG_OF_PERICENTER":"119.7590","REV_AT_EPOCH":"13486","MEAN_MOTION_DDOT":"0.0000000000000","SEMIMAJOR_AXIS":"6925.299","RA_OF_ASC_NODE":"137.3119","CENTER_NAME":"EARTH","EPOCH":"2022-11-04T19:40:10.274304","MEAN_ELEMENT_THEORY":"SGP4","COUNTRY_CODE":"US","GP_ID":"216932863","FILE":"3645105","RCS_SIZE":"LARGE","INCLINATION":"53.0539","OBJECT_ID":"2020-035AF","TLE_LINE1":"1 45686U 20035AF  22308.81956336 -.00002527  00000-0 -15077-3 0  9996"},{"RCS_SIZE":"LARGE","FILE":"3645105","INCLINATION":"53.0537","GP_ID":"216934113","TLE_LINE1":"1 45688U 20035AH  22308.79126840  .00012568  00000-0  79045-3 0  9993","OBJECT_ID":"2020-035AH","SEMIMAJOR_AXIS":"6915.656","MEAN_MOTION_DDOT":"0.0000000000000","REV_AT_EPOCH":"13486","RA_OF_ASC_NODE":"136.5425","CENTER_NAME":"EARTH","MEAN_ELEMENT_THEORY":"SGP4","COUNTRY_CODE":"US","EPOCH":"2022-11-04T18:59:25.589760","OBJECT_TYPE":"PAYLOAD","MEAN_MOTION_DOT":"0.00012568","ELEMENT_SET_NO":"999","TLE_LINE2":"2 45688  53.0537 136.5425 0001472 133.7672 226.3441 15.09567992134862","CLASSIFICATION_TYPE":"U","TIME_SYSTEM":"UTC","MEAN_MOTION":"15.09567992","NORAD_CAT_ID":"45688","ARG_OF_PERICENTER":"133.7672","MEAN_ANOMALY":"226.3441","DECAY_DATE":null,"PERIAPSIS":"536.503","EPHEMERIS_TYPE":"0","REF_FRAME":"TEME","ECCENTRICITY":"0.00014720","PERIOD":"95.392","BSTAR":"0.00079045000000","SITE":"AFETR","APOAPSIS":"538.539","OBJECT_NAME":"STARLINK-1408","LAUNCH_DATE":"2020-06-04"},{"GP_ID":"216933852","INCLINATION":"53.0529","FILE":"3645105","RCS_SIZE":"LARGE","OBJECT_ID":"2020-035AJ","TLE_LINE1":"1 45689U 20035AJ  22308.83800322  .00001831  00000-0  14178-3 0  9990","MEAN_MOTION_DDOT":"0.0000000000000","REV_AT_EPOCH":"13477","SEMIMAJOR_AXIS":"6925.364","COUNTRY_CODE":"US","MEAN_ELEMENT_THEORY":"SGP4","EPOCH":"2022-11-04T20:06:43.478208","RA_OF_ASC_NODE":"137.2391","CENTER_NAME":"EARTH","TLE_LINE2":"2 45689  53.0529 137.2391 0001444 128.3231 231.7888 15.06394802134774","ELEMENT_SET_NO":"999","CLASSIFICATION_TYPE":"U","TIME_SYSTEM":"UTC","MEAN_MOTION_DOT":"0.00001831","OBJECT_TYPE":"PAYLOAD","DECAY_DATE":null,"MEAN_ANOMALY":"231.7888","ARG_OF_PERICENTER":"128.3231","NORAD_CAT_ID":"45689","MEAN_MOTION":"15.06394802","EPHEMERIS_TYPE":"0","PERIAPSIS":"546.229","LAUNCH_DATE":"2020-06-04","OBJECT_NAME":"STARLINK-1413","BSTAR":"0.00014178000000","SITE":"AFETR","APOAPSIS":"548.230","ECCENTRICITY":"0.00014440","REF_FRAME":"TEME","PERIOD":"95.592"},{"OBJECT_TYPE":"PAYLOAD","CLASSIFICATION_TYPE":"U","TIME_SYSTEM":"UTC","TLE_LINE2":"2 45690  53.0009 137.3035 0001161 105.1678 254.9438 15.05576819134800","ELEMENT_SET_NO":"999","MEAN_MOTION_DOT":"-0.00000091","ARG_OF_PERICENTER":"105.1678","NORAD_CAT_ID":"45690","MEAN_MOTION":"15.05576819","DECAY_DATE":null,"MEAN_ANOMALY":"254.9438","PERIAPSIS":"548.933","EPHEMERIS_TYPE":"0","APOAPSIS":"550.542","SITE":"AFETR","BSTAR":"0.00001291500000","PERIOD":"95.644","ECCENTRICITY":"0.00011610","REF_FRAME":"TEME","LAUNCH_DATE":"2020-06-04","OBJECT_NAME":"STARLINK-1414","INCLINATION":"53.0009","RCS_SIZE":"LARGE","FILE":"3645105","GP_ID":"216932613","TLE_LINE1":"1 45690U 20035AK  22308.82581974 -.00000091  00000-0  12915-4 0  9996","OBJECT_ID":"2020-035AK","SEMIMAJOR_AXIS":"6927.873","REV_AT_EPOCH":"13480","MEAN_MOTION_DDOT":"0.0000000000000","EPOCH":"2022-11-04T19:49:10.825536","COUNTRY_CODE":"US","MEAN_ELEMENT_THEORY":"SGP4","RA_OF_ASC_NODE":"137.3035","CENTER_NAME":"EARTH"},{"GP_ID":"216933363","RCS_SIZE":"LARGE","FILE":"3645105","INCLINATION":"53.0560","OBJECT_ID":"2020-035AL","TLE_LINE1":"1 45691U 20035AL  22308.82326257  .00001273  00000-0  10438-3 0  9997","MEAN_MOTION_DDOT":"0.0000000000000","REV_AT_EPOCH":"13486","SEMIMAJOR_AXIS":"6925.378","CENTER_NAME":"EARTH","RA_OF_ASC_NODE":"137.2996","MEAN_ELEMENT_THEORY":"SGP4","COUNTRY_CODE":"US","EPOCH":"2022-11-04T19:45:29.886048","MEAN_MOTION_DOT":"0.00001273","ELEMENT_SET_NO":"999","TLE_LINE2":"2 45691  53.0560 137.2996 0001091  84.2417 275.8696 15.06390322134866","TIME_SYSTEM":"UTC","CLASSIFICATION_TYPE":"U","OBJECT_TYPE":"PAYLOAD","MEAN_ANOMALY":"275.8696","DECAY_DATE":null,"MEAN_MOTION":"15.06390322","NORAD_CAT_ID":"45691","ARG_OF_PERICENTER":"84.2417","EPHEMERIS_TYPE":"0","PERIAPSIS":"546.488","OBJECT_NAME":"STARLINK-1415","LAUNCH_DATE":"2020-06-04","REF_FRAME":"TEME","ECCENTRICITY":"0.00010910","PERIOD":"95.593","BSTAR":"0.00010438000000","SITE":"AFETR","APOAPSIS":"547.999"},{"GP_ID":"216933613","FILE":"3645105","RCS_SIZE":"LARGE","INCLINATION":"53.0519","OBJECT_ID":"2020-035AM","TLE_LINE1":"1 45692U 20035AM  22308.88222902  .00001736  00000-0  13539-3 0  9995","MEAN_MOTION_DDOT":"0.0000000000000","REV_AT_EPOCH":"13486","SEMIMAJOR_AXIS":"6925.357","CENTER_NAME":"EARTH","RA_OF_ASC_NODE":"137.0273","COUNTRY_CODE":"US","MEAN_ELEMENT_THEORY":"SGP4","EPOCH":"2022-11-04T21:10:24.587328","MEAN_MOTION_DOT":"0.00001736","ELEMENT_SET_NO":"999","TLE_LINE2":"2 45692  53.0519 137.0273 0001446  95.4177 264.6976 15.06397169134861","TIME_SYSTEM":"UTC","CLASSIFICATION_TYPE":"U","OBJECT_TYPE":"PAYLOAD","MEAN_ANOMALY":"264.6976","DECAY_DATE":null,"MEAN_MOTION":"15.06397169","NORAD_CAT_ID":"45692","ARG_OF_PERICENTER":"95.4177","EPHEMERIS_TYPE":"0","PERIAPSIS":"546.221","OBJECT_NAME":"STARLINK-1416","LAUNCH_DATE":"2020-06-04","REF_FRAME":"TEME","ECCENTRICITY":"0.00014460","PERIOD":"95.592","APOAPSIS":"548.224","SITE":"AFETR","BSTAR":"0.00013539000000"}];
